{
  "type": "FeatureCollection",
  "features": [
    {
      "type": "Feature",
      "properties": {
        "norad_id": 41581,
        "name": "INTELSAT 31 (IS-31)",
        "group": "intelsat",
        "lat": -0.013332580610299802,
        "lon": 156.85764369142703,
        "alt_km": 35783.272777487204,
        "timestamp": "2025-12-09T11:33:54.468423+00:00",
        "meta_object_name": "INTELSAT 31 (IS-31)",
        "meta_object_id": "2016-035A",
        "meta_epoch": "2025-12-09T02:50:55.716288",
        "meta_mean_motion": 1.00269221,
        "meta_eccentricity": 0.0001876,
        "meta_inclination": 0.0183,
        "meta_ra_of_asc_node": 271.2034,
        "meta_arg_of_pericenter": 308.8041,
        "meta_mean_anomaly": 165.7734,
        "meta_ephemeris_type": 0,
        "meta_classification_type": "U",
        "meta_norad_cat_id": 41581,
        "meta_element_set_no": 999,
        "meta_rev_at_epoch": 3477,
        "meta_bstar": 0,
        "meta_mean_motion_dot": -1.48e-06,
        "meta_mean_motion_ddot": 0,
        "tle_line1": "1 41581U 16035A   25343.11870042 -.00000148  00000+0  00000+0 0  9996",
        "tle_line2": "2 41581   0.0183 271.2034 0001876 308.8041 165.7734  1.00269221 34775"
      },
      "geometry": {
        "type": "Point",
        "coordinates": [
          156.85764369142703,
          -0.013332580610299802
        ]
      }
    },
    {
      "type": "Feature",
      "properties": {
        "norad_id": 41747,
        "name": "INTELSAT 36 (IS-36)",
        "group": "intelsat",
        "lat": -0.01640973212234451,
        "lon": -39.55987733735522,
        "alt_km": 35780.65102072338,
        "timestamp": "2025-12-09T11:33:54.468434+00:00",
        "meta_object_name": "INTELSAT 36 (IS-36)",
        "meta_object_id": "2016-053A",
        "meta_epoch": "2025-12-09T03:37:36.247008",
        "meta_mean_motion": 1.00269853,
        "meta_eccentricity": 0.0001422,
        "meta_inclination": 0.0118,
        "meta_ra_of_asc_node": 357.5426,
        "meta_arg_of_pericenter": 318.485,
        "meta_mean_anomaly": 245.015,
        "meta_ephemeris_type": 0,
        "meta_classification_type": "U",
        "meta_norad_cat_id": 41747,
        "meta_element_set_no": 999,
        "meta_rev_at_epoch": 3404,
        "meta_bstar": 0,
        "meta_mean_motion_dot": -2.2e-07,
        "meta_mean_motion_ddot": 0,
        "tle_line1": "1 41747U 16053A   25343.15111397 -.00000022  00000+0  00000+0 0  9996",
        "tle_line2": "2 41747   0.0118 357.5426 0001422 318.4850 245.0150  1.00269853 34047"
      },
      "geometry": {
        "type": "Point",
        "coordinates": [
          -39.55987733735522,
          -0.01640973212234451
        ]
      }
    },
    {
      "type": "Feature",
      "properties": {
        "norad_id": 41945,
        "name": "INTELSAT 32E (IS-32E)",
        "group": "intelsat",
        "lat": 0.0020029073874485307,
        "lon": -151.23231329101532,
        "alt_km": 35788.29652329778,
        "timestamp": "2025-12-09T11:33:54.468446+00:00",
        "meta_object_name": "INTELSAT 32E (IS-32E)",
        "meta_object_id": "2017-007B",
        "meta_epoch": "2025-12-09T03:32:38.808096",
        "meta_mean_motion": 1.00269383,
        "meta_eccentricity": 4.33e-05,
        "meta_inclination": 0.0261,
        "meta_ra_of_asc_node": 66.9481,
        "meta_arg_of_pericenter": 287.6191,
        "meta_mean_anomaly": 93.5649,
        "meta_ephemeris_type": 0,
        "meta_classification_type": "U",
        "meta_norad_cat_id": 41945,
        "meta_element_set_no": 999,
        "meta_rev_at_epoch": 3232,
        "meta_bstar": 0,
        "meta_mean_motion_dot": -2.67e-06,
        "meta_mean_motion_ddot": 0,
        "tle_line1": "1 41945U 17007B   25343.14767139 -.00000267  00000+0  00000+0 0  9997",
        "tle_line2": "2 41945   0.0261  66.9481 0000433 287.6191  93.5649  1.00269383 32320"
      },
      "geometry": {
        "type": "Point",
        "coordinates": [
          -151.23231329101532,
          0.0020029073874485307
        ]
      }
    },
    {
      "type": "Feature",
      "properties": {
        "norad_id": 42818,
        "name": "INTELSAT 35E (IS-35E)",
        "group": "intelsat",
        "lat": -0.01462099816852856,
        "lon": -142.57652534421237,
        "alt_km": 35780.34205668183,
        "timestamp": "2025-12-09T11:33:54.468458+00:00",
        "meta_object_name": "INTELSAT 35E (IS-35E)",
        "meta_object_id": "2017-041A",
        "meta_epoch": "2025-12-09T03:08:09.067200",
        "meta_mean_motion": 1.00269564,
        "meta_eccentricity": 0.0002298,
        "meta_inclination": 0.0022,
        "meta_ra_of_asc_node": 6.2141,
        "meta_arg_of_pericenter": 260.1671,
        "meta_mean_anomaly": 184.2831,
        "meta_ephemeris_type": 0,
        "meta_classification_type": "U",
        "meta_norad_cat_id": 42818,
        "meta_element_set_no": 999,
        "meta_rev_at_epoch": 3091,
        "meta_bstar": 0,
        "meta_mean_motion_dot": -2.36e-06,
        "meta_mean_motion_ddot": 0,
        "tle_line1": "1 42818U 17041A   25343.13066050 -.00000236  00000+0  00000+0 0  9994",
        "tle_line2": "2 42818   0.0022   6.2141 0002298 260.1671 184.2831  1.00269564 30910"
      },
      "geometry": {
        "type": "Point",
        "coordinates": [
          -142.57652534421237,
          -0.01462099816852856
        ]
      }
    },
    {
      "type": "Feature",
      "properties": {
        "norad_id": 42950,
        "name": "INTELSAT 37E (IS-37E)",
        "group": "intelsat",
        "lat": -0.029910621795218268,
        "lon": -126.06842498327735,
        "alt_km": 35772.87586582038,
        "timestamp": "2025-12-09T11:33:54.468469+00:00",
        "meta_object_name": "INTELSAT 37E (IS-37E)",
        "meta_object_id": "2017-059A",
        "meta_epoch": "2025-12-09T03:12:53.611776",
        "meta_mean_motion": 1.00270721,
        "meta_eccentricity": 0.0003393,
        "meta_inclination": 0.0168,
        "meta_ra_of_asc_node": 6.5052,
        "meta_arg_of_pericenter": 247.1332,
        "meta_mean_anomaly": 214.7146,
        "meta_ephemeris_type": 0,
        "meta_classification_type": "U",
        "meta_norad_cat_id": 42950,
        "meta_element_set_no": 999,
        "meta_rev_at_epoch": 3016,
        "meta_bstar": 0,
        "meta_mean_motion_dot": -1.39e-06,
        "meta_mean_motion_ddot": 0,
        "tle_line1": "1 42950U 17059A   25343.13395384 -.00000139  00000+0  00000+0 0  9997",
        "tle_line2": "2 42950   0.0168   6.5052 0003393 247.1332 214.7146  1.00270721 30160"
      },
      "geometry": {
        "type": "Point",
        "coordinates": [
          -126.06842498327735,
          -0.029910621795218268
        ]
      }
    },
    {
      "type": "Feature",
      "properties": {
        "norad_id": 43632,
        "name": "AZERSPACE 2 (IS-38)",
        "group": "intelsat",
        "lat": -0.025829032387058137,
        "lon": -62.93549106628052,
        "alt_km": 35781.20808648516,
        "timestamp": "2025-12-09T11:33:54.468481+00:00",
        "meta_object_name": "AZERSPACE 2 (IS-38)",
        "meta_object_id": "2018-074A",
        "meta_epoch": "2025-12-09T03:30:51.892416",
        "meta_mean_motion": 1.00270269,
        "meta_eccentricity": 0.000156,
        "meta_inclination": 0.0168,
        "meta_ra_of_asc_node": 340.0792,
        "meta_arg_of_pericenter": 279.7888,
        "meta_mean_anomaly": 276.0995,
        "meta_ephemeris_type": 0,
        "meta_classification_type": "U",
        "meta_norad_cat_id": 43632,
        "meta_element_set_no": 999,
        "meta_rev_at_epoch": 2654,
        "meta_bstar": 0,
        "meta_mean_motion_dot": 1.39e-06,
        "meta_mean_motion_ddot": 0,
        "tle_line1": "1 43632U 18074A   25343.14643394  .00000139  00000+0  00000+0 0  9990",
        "tle_line2": "2 43632   0.0168 340.0792 0001560 279.7888 276.0995  1.00270269 26543"
      },
      "geometry": {
        "type": "Point",
        "coordinates": [
          -62.93549106628052,
          -0.025829032387058137
        ]
      }
    },
    {
      "type": "Feature",
      "properties": {
        "norad_id": 43633,
        "name": "HORIZONS-3E",
        "group": "intelsat",
        "lat": 0.0011760726852478556,
        "lon": 60.96545947504557,
        "alt_km": 35790.794928096715,
        "timestamp": "2025-12-09T11:33:54.468493+00:00",
        "meta_object_name": "HORIZONS-3E",
        "meta_object_id": "2018-074B",
        "meta_epoch": "2025-12-09T03:34:38.599104",
        "meta_mean_motion": 1.00269188,
        "meta_eccentricity": 0.0001223,
        "meta_inclination": 0.0427,
        "meta_ra_of_asc_node": 177.1186,
        "meta_arg_of_pericenter": 103.4873,
        "meta_mean_anomaly": 20.2129,
        "meta_ephemeris_type": 0,
        "meta_classification_type": "U",
        "meta_norad_cat_id": 43633,
        "meta_element_set_no": 999,
        "meta_rev_at_epoch": 2643,
        "meta_bstar": 0,
        "meta_mean_motion_dot": -2.9e-07,
        "meta_mean_motion_ddot": 0,
        "tle_line1": "1 43633U 18074B   25343.14905786 -.00000029  00000+0  00000+0 0  9996",
        "tle_line2": "2 43633   0.0427 177.1186 0001223 103.4873  20.2129  1.00269188 26435"
      },
      "geometry": {
        "type": "Point",
        "coordinates": [
          60.96545947504557,
          0.0011760726852478556
        ]
      }
    }
  ]
}